OBJECT_NAME,OBJECT_ID,EPOCH,MEAN_MOTION,ECCENTRICITY,INCLINATION,RA_OF_ASC_NODE,ARG_OF_PERICENTER,MEAN_ANOMALY,EPHEMERIS_TYPE,CLASSIFICATION_TYPE,NORAD_CAT_ID,ELEMENT_SET_NO,REV_AT_EPOCH,BSTAR,MEAN_MOTION_DOT,MEAN_MOTION_DDOT
BEIDOU-2 G8 (C01),2019-027A,2026-06-14T12:44:31.678944,1.00271619,.0010259,1.6501,74.5002,282.0715,241.9348,0,U,44231,999,2605,0,-.241E-5,0
COSMOS 2534 (758),2019-030A,2026-06-14T04:41:38.580288,2.13102146,.00133606,64.3685,192.7172,275.2268,88.8292,0,U,44299,999,5486,0,.106E-5,0
BEIDOU-3 IGSO-2 (C39),2019-035A,2026-06-13T14:12:59.719968,1.00267282,.0039933,55.2457,158.8942,216.5217,219.5102,0,U,44337,999,2563,0,-.57E-6,0
GPS BIII-2  (PRN 18),2019-056A,2026-06-13T15:48:06.047712,2.00569401,.00619191,55.6389,331.2830,197.5945,161.8004,0,U,44506,999,4999,0,-.75E-6,0
BEIDOU-3 M24 (C46),2019-061A,2026-06-11T08:03:49.249152,1.86229258,.0008267,54.3962,182.9254,358.9131,1.1499,0,U,44542,999,4568,0,.129E-5,0
BEIDOU-3 M23 (C45),2019-061B,2026-06-14T09:31:15.471840,1.86227191,.0005622,54.3948,182.7903,338.1911,185.5341,0,U,44543,999,4574,0,.1E-5,0
EUTELSAT 5 WEST B (EGNOS/PRN 121),2019-067A,2026-06-14T09:39:43.415712,1.00271990,.0002876,0.0628,0.8156,81.1129,320.7266,0,U,44624,999,2440,0,-.34E-6,0
BEIDOU-3 IGSO-3 (C40),2019-073A,2026-05-16T19:27:04.075776,1.00246251,.0042953,54.8566,281.2355,189.4588,170.3676,0,U,44709,999,2414,0,-.217E-5,0
BEIDOU-3 M22 (C44),2019-078A,2026-06-14T09:32:19.407840,1.86227299,.0006443,53.9389,299.9266,50.5968,309.4441,0,U,44793,999,4459,0,-.68E-6,0
BEIDOU-3 M21 (C43),2019-078B,2026-06-13T11:07:22.296864,1.86227756,.00042788,53.9128,299.9208,48.5109,311.5090,0,U,44794,999,4458,0,-.68E-6,0
COSMOS 2544 (759),2019-088A,2026-06-13T17:52:08.134176,2.13102464,.00132714,65.5635,73.8460,258.8223,101.0491,0,U,44850,999,5064,0,-.29E-6,0
BEIDOU-3 M19 (C41),2019-090A,2026-06-14T12:09:28.265760,1.86231318,.0017911,56.5563,62.8797,297.9595,238.7213,0,U,44864,999,4418,0,-.53E-6,0
BEIDOU-3 M20 (C42),2019-090B,2026-06-14T08:57:54.923904,1.86231348,.0015705,56.5581,62.9188,311.9742,225.1097,0,U,44865,999,4416,0,-.54E-6,0
BEIDOU-3 G2 (C60),2020-017A,2026-06-14T11:46:36.204384,1.00272287,.0002088,2.8577,47.2925,32.3243,79.8990,0,U,45344,999,2323,0,-.136E-5,0
COSMOS 2545 (760),2020-018A,2026-06-13T22:32:56.548032,2.13102550,.0008283,64.3570,312.5335,230.5235,129.3878,0,U,45358,999,4859,0,-.54E-6,0
BEIDOU-3 G3 (C61),2020-040A,2026-06-14T13:50:41.454816,1.00267886,.0002448,2.4396,67.4391,335.5356,178.1123,0,U,45807,999,2204,0,-.348E-5,0
GPS BIII-3  (PRN 23),2020-041A,2026-06-11T13:28:43.319136,2.00558626,.00636043,56.6657,29.1622,204.6361,19.3768,0,U,45854,999,4392,0,-.63E-6,0
GALAXY 30 (WAAS/PRN 135),2020-056C,2026-06-14T10:48:04.314816,1.00270496,.0002058,0.0177,5.0992,79.2407,215.4260,0,U,46114,999,2126,0,.44E-6,0
COSMOS 2547 (705K),2020-075A,2026-06-12T17:18:40.313088,2.13100258,.00092459,64.5993,192.6246,239.6069,120.3788,0,U,46805,999,4381,0,.119E-5,0
GPS BIII-4  (PRN 14),2020-078A,2026-06-14T10:25:29.256096,2.00564753,.0073424,53.9801,210.8904,207.1155,267.3501,0,U,46826,999,4145,0,.81E-6,0
GPS BIII-5  (PRN 11),2021-054A,2026-06-14T11:47:19.265280,2.00568903,.0025337,55.1759,332.5679,228.5758,113.1489,0,U,48859,999,3669,0,-.79E-6,0
QZS-1R (QZSS/PRN 196),2021-096A,2026-06-13T15:27:40.262400,1.00256479,.07545779,37.4546,79.6370,271.7231,276.7370,0,U,49336,999,1697,0,-.269E-5,0
GSAT0223 (GALILEO 27),2021-116A,2026-06-11T03:10:17.992416,1.70475860,.00014044,57.1623,341.8389,187.4451,176.2704,0,U,49809,999,2808,0,-.65E-6,0
GSAT0224 (GALILEO 28),2021-116B,2026-06-14T10:59:55.677984,1.70475791,.0001119,57.1622,341.7473,160.2799,197.3797,0,U,49810,999,2815,0,-.78E-6,0
COSMOS 2557 (706K),2022-075A,2026-06-12T21:15:15.092640,2.13102288,.00102223,64.3011,314.6375,275.3123,84.5589,0,U,52984,999,3062,0,-.51E-6,0
COSMOS 2559 (707K),2022-130A,2026-06-10T08:36:50.817600,2.13101643,.00124272,64.2757,314.8093,178.3735,181.6269,0,U,54031,999,2854,0,-.39E-6,0
COSMOS 2564 (761),2022-161A,2026-06-13T00:25:37.419744,2.13101986,.00121417,64.7413,192.8502,224.5907,135.3886,0,U,54377,999,2754,0,.118E-5,0
GPS BIII-6  (PRN 28),2023-009A,2026-06-12T03:02:56.980032,2.00571739,.00062561,55.1221,148.7180,318.0841,154.7932,0,U,55268,999,2514,0,.93E-6,0
BEIDOU-3 G4 (C62),2023-066A,2026-06-14T12:03:43.816608,1.00274578,.0004291,0.4897,330.7659,181.9191,71.0522,0,U,56564,999,1136,0,-.273E-5,0
NVS-01 (IRNSS-1J),2023-076A,2026-06-14T12:00:44.102880,1.00265911,.0003194,2.1724,244.4781,36.6659,291.3460,0,U,56759,999,1108,0,-.327E-5,0
COSMOS 2569 (703K),2023-114A,2026-06-13T00:43:20.520768,2.13103647,.00108188,65.2998,72.7606,296.8248,63.0846,0,U,57517,999,2217,0,-.32E-6,0
